NORAD_CAT_ID,OBJECT_NAME,OBJECT_TYPE,EPOCH,MEAN_MOTION,ECCENTRICITY,INCLINATION,RA_OF_ASC_NODE,ARG_OF_PERICENTER,MEAN_ANOMALY,BSTAR,MEAN_MOTION_DOT,MEAN_MOTION_DDOT,TLE_LINE0,TLE_LINE1,TLE_LINE2,SEMIMAJOR_AXIS,PERIOD,APOGEE,PERIGEE,DECAYED
51808.0,STARLINK-3609,PAYLOAD,2022-06-26 14:00:01,15.08836445,0.0001693,53.2206,288.9599,40.169,238.0573,-6.869399999999999e-05,-1.381e-05,0.0,0 STARLINK-3609,1 51808U 22017AS  22177.58335648 -.00001381  00000-0 -68694-4 0  9997,2 51808  53.2206 288.9599 0001693  40.1690 238.0573 15.08836445  1307,6917.891,95.438,540.927,538.585,0.0
51808.0,STARLINK-3609,PAYLOAD,2022-06-26 22:00:00,15.08857712,0.0001651,53.2204,287.4633,38.5159,251.2299,-0.0014762,-0.00023716,0.0,0 STARLINK-3609,1 51808U 22017AS  22177.91667824 -.00023716  00000-0 -14762-2 0  9999,2 51808  53.2204 287.4633 0001651  38.5159 251.2299 15.08857712  1305,6917.826,95.436,540.8330000000002,538.549,0.0
51808.0,STARLINK-3609,PAYLOAD,2022-06-27 06:00:00,15.08840362,0.0001508,53.2207,285.9658,45.6243,255.7291,0.001756,0.0002777,0.0,0 STARLINK-3609,1 51808U 22017AS  22178.25001157  .00027770  00000-0  17560-2 0  9999,2 51808  53.2207 285.9658 0001508  45.6243 255.7291 15.08840362 20048,6917.879,95.438,540.7869999999998,538.701,0.0
51808.0,STARLINK-3609,PAYLOAD,2022-06-27 14:00:01,15.08841262,0.0001737,53.2206,284.4714,42.7621,270.198,-0.0014812999999999,-0.00023787,0.0,0 STARLINK-3609,1 51808U 22017AS  22178.58334491 -.00023787  00000-0 -14813-2 0  9999,2 51808  53.2206 284.4714 0001737  42.7621 270.1980 15.08841262 20097,6917.877,95.437,540.943,538.54,0.0
51808.0,STARLINK-3609,PAYLOAD,2022-06-27 22:00:00,15.08852626,0.0001699,53.2202,282.9747,42.2827,282.2629,-0.0018359,-0.00029398,0.0,0 STARLINK-3609,1 51808U 22017AS  22178.91667824 -.00029398  00000-0 -18359-2 0  9998,2 51808  53.2202 282.9747 0001699  42.2827 282.2629 15.08852626  1305,6917.842,95.437,540.882,538.531,0.0
51808.0,STARLINK-3609,PAYLOAD,2022-06-28 06:00:00,15.08825205,0.0001563,53.2204,281.4775,49.544,286.595,0.0022759,0.00036104,0.0,0 STARLINK-3609,1 51808U 22017AS  22179.25001157  .00036104  00000-0  22759-2 0  9997,2 51808  53.2204 281.4775 0001563  49.5440 286.5950 15.08825205 20198,6917.926,95.438,540.872,538.7090000000002,0.0
51808.0,STARLINK-3609,PAYLOAD,2022-06-28 14:00:01,15.088509900000002,0.0001776,53.2202,279.9832,45.106,302.6231,-0.002355,-0.00037584,0.0,0 STARLINK-3609,1 51808U 22017AS  22179.58334491 -.00037584  00000-0 -23550-2 0  9998,2 51808  53.2202 279.9832 0001776  45.1060 302.6231 15.08850990  1301,6917.847,95.437,540.94,538.4830000000002,0.0
51808.0,STARLINK-3609,PAYLOAD,2022-06-28 22:00:00,15.08840717,0.0001771999999999,53.2197,278.4862,46.3486,312.9717,-0.0026849,-0.00042766,0.0,0 STARLINK-3609,1 51808U 22017AS  22179.91667824 -.00042766  00000-0 -26849-2 0  9996,2 51808  53.2197 278.4862 0001772  46.3486 312.9717 15.08840717 20290,6917.878000000002,95.438,540.969,538.5169999999998,0.0
51808.0,STARLINK-3609,PAYLOAD,2022-06-29 14:00:01,15.08821268,0.0001857,53.2195,275.495,47.6307,334.8404,-4.6882e-05,-1.034e-05,0.0,0 STARLINK-3609,1 51808U 22017AS  22180.58334491 -.00001034  00000-0 -46882-4 0  9996,2 51808  53.2195 275.4950 0001857  47.6307 334.8404 15.08821268 20390,6917.938,95.439,541.087,538.518,0.0
51808.0,STARLINK-3609,PAYLOAD,2022-06-29 22:00:00,15.08844258,0.0001791,53.2191,273.9978,47.1297,346.9124,-0.0020817,-0.0003327,0.0,0 STARLINK-3609,1 51808U 22017AS  22180.91667824 -.00033270  00000-0 -20817-2 0  9997,2 51808  53.2191 273.9978 0001791  47.1297 346.9124 15.08844258  1306,6917.8669999999975,95.437,540.971,538.493,0.0
51808.0,STARLINK-3609,PAYLOAD,2022-06-30 14:00:01,15.08829705,0.0001906,53.2191,271.0065,47.5797,9.6369,0.00029538,4.415e-05,0.0,0 STARLINK-3609,1 51808U 22017AS  22181.58334491  .00004415  00000-0  29538-3 0  9999,2 51808  53.2191 271.0065 0001906  47.5797   9.6369 15.08829705 20540,6917.9119999999975,95.438,541.095,538.4580000000002,0.0
51808.0,STARLINK-3609,PAYLOAD,2022-06-30 22:00:00,15.08852888,0.0001832,53.219,269.5092,47.3556,21.4426,-0.0019876,-0.00031793,0.0,0 STARLINK-3609,1 51808U 22017AS  22181.91667824 -.00031793  00000-0 -19876-2 0  9999,2 51808  53.2190 269.5092 0001832  47.3556  21.4426 15.08852888  1307,6917.840999999999,95.437,540.9730000000002,538.439,0.0
51808.0,STARLINK-3609,PAYLOAD,2022-07-01 14:00:01,15.08837891,0.0001975,53.219,266.5178,47.1044,44.8963,0.00077453,0.00012059,0.0,0 STARLINK-3609,1 51808U 22017AS  22182.58334491  .00012059  00000-0  77453-3 0  9992,2 51808  53.2190 266.5178 0001975  47.1044  44.8963 15.08837891  1309,6917.887,95.438,541.118,538.386,0.0
51808.0,STARLINK-3609,PAYLOAD,2022-07-01 22:00:00,15.08862653,0.0001882,53.219,265.0204,47.6987,55.8968,-0.0018086,-0.00028975,0.0,0 STARLINK-3609,1 51808U 22017AS  22182.91667824 -.00028975  00000-0 -18086-2 0  9990,2 51808  53.2190 265.0204 0001882  47.6987  55.8968 15.08862653 20741,6917.811,95.436,540.9780000000002,538.374,0.0
51808.0,STARLINK-3609,PAYLOAD,2022-07-02 14:00:01,15.08846466,0.0002034,53.2191,262.029,46.523,80.3023,0.0013305,0.00020954,0.0,0 STARLINK-3609,1 51808U 22017AS  22183.58334491  .00020954  00000-0  13305-2 0  9991,2 51808  53.2191 262.0290 0002034  46.5230  80.3023 15.08846466  1303,6917.861,95.437,541.133,538.319,0.0
51808.0,STARLINK-3609,PAYLOAD,2022-07-02 22:00:00,15.08893236,0.0001901,53.219,260.5314,47.1091,91.3369,-0.003179,-0.00050601,0.0,0 STARLINK-3609,1 51808U 22017AS  22183.91667824 -.00050601  00000-0 -31790-2 0  9999,2 51808  53.2190 260.5314 0001901  47.1091  91.3369 15.08893236 20893,6917.718000000003,95.434,540.898,538.268,0.0
51808.0,STARLINK-3609,PAYLOAD,2022-07-03 14:00:01,15.08852378,0.0001963,53.2192,257.5399,43.3205,118.3792,-0.001089,-0.00017584,0.0,0 STARLINK-3609,1 51808U 22017AS  22184.58334491 -.00017584  00000-0 -10890-2 0  9995,2 51808  53.2192 257.5399 0001963  43.3205 118.3792 15.08852378 20990,6917.843000000003,95.437,541.066,538.35,0.0
51808.0,STARLINK-3609,PAYLOAD,2022-07-03 22:00:00,15.08843852,0.0001821,53.2191,256.0421,45.5981,127.7064,-0.0041941,-0.0006642999999999,0.0,0 STARLINK-3609,1 51808U 22017AS  22184.91667824 -.00066430  00000-0 -41941-2 0  9996,2 51808  53.2191 256.0421 0001821  45.5981 127.7064 15.08843852  1304,6917.869000000002,95.437,540.993,538.474,0.0
51808.0,STARLINK-3609,PAYLOAD,2022-07-04 14:00:01,15.08790576,0.0002,53.2192,253.0511,44.3628,152.0733,0.0021113,0.00033428,0.0,0 STARLINK-3609,1 51808U 22017AS  22185.58334491  .00033428  00000-0  21113-2 0  9999,2 51808  53.2192 253.0511 0002000  44.3628 152.0733 15.08790576  1305,6918.031,95.441,541.28,538.513,0.0
51808.0,STARLINK-3609,PAYLOAD,2022-07-04 22:00:00,15.08820567,0.0001831,53.219,251.5533,47.3577,160.6353,-0.00070783,-0.0001153,0.0,0 STARLINK-3609,1 51808U 22017AS  22185.91667824 -.00011530  00000-0 -70783-3 0  9995,2 51808  53.2190 251.5533 0001831  47.3577 160.6353 15.08820567  1304,6917.94,95.439,541.071,538.538,0.0
51808.0,STARLINK-3609,PAYLOAD,2022-07-05 14:00:01,15.08803496,0.000199,53.219,248.5624,44.9674,186.1722,0.0025043,0.00039754,0.0,0 STARLINK-3609,1 51808U 22017AS  22186.58334491  .00039754  00000-0  25043-2 0  9994,2 51808  53.2190 248.5624 0001990  44.9674 186.1722 15.08803496  1303,6917.9919999999975,95.44,541.234,538.48,0.0
51808.0,STARLINK-3609,PAYLOAD,2022-07-05 22:00:00,15.08825822,0.0001816,53.2188,247.0644,48.5387,194.1694,-0.00036155,-6.035e-05,0.0,0 STARLINK-3609,1 51808U 22017AS  22186.91667824 -.00006035  00000-0 -36155-3 0  9995,2 51808  53.2188 247.0644 0001816  48.5387 194.1694 15.08825822  1308,6917.924,95.438,541.045,538.5319999999998,0.0
51808.0,STARLINK-3609,PAYLOAD,2022-07-06 14:00:01,15.08807683,0.0001995,53.2186,244.0736,45.9461,219.9238,0.0025832,0.00041027,0.0,0 STARLINK-3609,1 51808U 22017AS  22187.58334491  .00041027  00000-0  25832-2 0  9997,2 51808  53.2186 244.0736 0001995  45.9461 219.9238 15.08807683  1302,6917.979,95.44,541.224,538.464,0.0
51808.0,STARLINK-3609,PAYLOAD,2022-07-06 20:46:32,15.08822541,0.0001941,53.2199,242.805,48.7496,311.3663,0.00011902,1.606e-05,0.0,0 STARLINK-3609,1 51808U 22017AS  22187.86564939  .00001606  00000-0  11902-3 0  9993,2 51808  53.2199 242.8050 0001941  48.7496 311.3663 15.08822541 21391,6917.934,95.439,541.1419999999998,538.456,0.0
51808.0,STARLINK-3609,PAYLOAD,2022-07-07 06:00:02,15.08848779,0.0001864,53.2186,241.0796,52.1585,236.9283,-0.001256,-0.00020227,0.0,0 STARLINK-3609,1 51808U 22017AS  22188.25002315 -.00020227  00000-0 -12560-2 0  9994,2 51808  53.2186 241.0796 0001864  52.1585 236.9283 15.08848779 21556,6917.854,95.437,541.008,538.429,0.0
51808.0,STARLINK-3609,PAYLOAD,2022-07-07 11:05:00,15.08829474,0.0001954,53.2199,240.1289,49.6654,310.4508,0.00010473,1.379e-05,0.0,0 STARLINK-3609,1 51808U 22017AS  22188.46181181  .00001379  00000-0  10473-3 0  9993,2 51808  53.2199 240.1289 0001954  49.6654 310.4508 15.08829474 21486,6917.913000000001,95.438,541.129,538.4259999999998,0.0
51808.0,STARLINK-3609,PAYLOAD,2022-07-07 20:37:19,15.08833213,0.0001983,53.2198,238.3448,49.5652,310.5513,0.00012088,1.636e-05,0.0,0 STARLINK-3609,1 51808U 22017AS  22188.85925222  .00001636  00000-0  12088-3 0  9998,2 51808  53.2198 238.3448 0001983  49.5652 310.5513 15.08833213 21540,6917.901,95.438,541.138,538.394,0.0
51808.0,STARLINK-3609,PAYLOAD,2022-07-08 12:31:10,15.08845654,0.0001994,53.2197,235.3714,50.5414,309.5754,0.00017211,2.452e-05,0.0,0 STARLINK-3609,1 51808U 22017AS  22189.52164468  .00002452  00000-0  17211-3 0  9990,2 51808  53.2197 235.3714 0001994  50.5414 309.5754 15.08845654 21640,6917.863,95.437,541.1080000000002,538.349,0.0
51808.0,STARLINK-3609,PAYLOAD,2022-07-08 22:00:01,15.08852579,0.0001936,53.2186,233.5975,50.1323,296.9758,0.0016437,0.00025978,0.0,0 STARLINK-3609,1 51808U 22017AS  22189.91668981  .00025978  00000-0  16437-2 0  9998,2 51808  53.2186 233.5975 0001936  50.1323 296.9758 15.08852579  1306,6917.842,95.437,541.0459999999998,538.368,0.0
